[{"OBJECT_NAME":"STARLINK-32444","OBJECT_ID":"2024-217S","EPOCH":"2026-03-09T15:28:29.449920","MEAN_MOTION":15.30185337,"ECCENTRICITY":0.0001041,"INCLINATION":53.1581,"RA_OF_ASC_NODE":194.1821,"ARG_OF_PERICENTER":71.1129,"MEAN_ANOMALY":288.9984,"EPHEMERIS_TYPE":0,"CLASSIFICATION_TYPE":"U","NORAD_CAT_ID":62073,"ELEMENT_SET_NO":999,"REV_AT_EPOCH":7341,"BSTAR":0.00098311,"MEAN_MOTION_DOT":0.00028857,"MEAN_MOTION_DDOT":0},{"OBJECT_NAME":"GEOSCAN 1 (RS92S1)","OBJECT_ID":"2025-155E","EPOCH":"2026-03-09T22:44:05.846496","MEAN_MOTION":15.28410635,"ECCENTRICITY":0.00087099,"INCLINATION":97.4463,"RA_OF_ASC_NODE":37.403,"ARG_OF_PERICENTER":153.6429,"MEAN_ANOMALY":206.5255,"EPHEMERIS_TYPE":0,"CLASSIFICATION_TYPE":"U","NORAD_CAT_ID":64880,"ELEMENT_SET_NO":999,"REV_AT_EPOCH":6560,"BSTAR":0.00054367431,"MEAN_MOTION_DOT":0.00014993,"MEAN_MOTION_DDOT":0}]
